{
  "type": "FeatureCollection",
  "features": [
    { "type": "Feature", "properties": { "ward_number": 1,  "ward_name": "Somajiguda",  "zone": "Central" }, "geometry": { "type": "Polygon", "coordinates": [[[78.48,17.43],[78.49,17.43],[78.49,17.44],[78.48,17.44],[78.48,17.43]]] } },
    { "type": "Feature", "properties": { "ward_number": 2,  "ward_name": "Banjara Hills", "zone": "Central" }, "geometry": { "type": "Polygon", "coordinates": [[[78.47,17.41],[78.48,17.41],[78.48,17.42],[78.47,17.42],[78.47,17.41]]] } },
    { "type": "Feature", "properties": { "ward_number": 3,  "ward_name": "Jubilee Hills", "zone": "West"     }, "geometry": { "type": "Polygon", "coordinates": [[[78.40,17.42],[78.41,17.42],[78.41,17.43],[78.40,17.43],[78.40,17.42]]] } },
    { "type": "Feature", "properties": { "ward_number": 4,  "ward_name": "Secunderabad", "zone": "North"    }, "geometry": { "type": "Polygon", "coordinates": [[[78.50,17.44],[78.51,17.44],[78.51,17.45],[78.50,17.45],[78.50,17.44]]] } },
    { "type": "Feature", "properties": { "ward_number": 5,  "ward_name": "Charminar",     "zone": "South"    }, "geometry": { "type": "Polygon", "coordinates": [[[78.47,17.36],[78.48,17.36],[78.48,17.37],[78.47,17.37],[78.47,17.36]]] } },
    { "type": "Feature", "properties": { "ward_number": 6,  "ward_name": "Ameerpet",      "zone": "Central"  }, "geometry": { "type": "Polygon", "coordinates": [[[78.44,17.43],[78.45,17.43],[78.45,17.44],[78.44,17.44],[78.44,17.43]]] } },
    { "type": "Feature", "properties": { "ward_number": 7,  "ward_name": "Begumpet",      "zone": "Central"  }, "geometry": { "type": "Polygon", "coordinates": [[[78.46,17.44],[78.47,17.44],[78.47,17.45],[78.46,17.45],[78.46,17.44]]] } },
    { "type": "Feature", "properties": { "ward_number": 8,  "ward_name": "Kukatpally",    "zone": "West"     }, "geometry": { "type": "Polygon", "coordinates": [[[78.39,17.49],[78.40,17.49],[78.40,17.50],[78.39,17.50],[78.39,17.49]]] } },
    { "type": "Feature", "properties": { "ward_number": 9,  "ward_name": "LB Nagar",      "zone": "East"     }, "geometry": { "type": "Polygon", "coordinates": [[[78.55,17.34],[78.56,17.34],[78.56,17.35],[78.55,17.35],[78.55,17.34]]] } },
    { "type": "Feature", "properties": { "ward_number": 10, "ward_name": "Dilsukhnagar",  "zone": "East"     }, "geometry": { "type": "Polygon", "coordinates": [[[78.53,17.37],[78.54,17.37],[78.54,17.38],[78.53,17.38],[78.53,17.37]]] } }
  ]
}